{"fetched_at":"2026-03-29T02:12:04Z","count":15717,"tles":[{"name":"GPS BIII-1  (PRN 04)","line1":"1 43873U 18109A   26087.26453723  .00000045  00000+0  00000+0 0  9996","line2":"2 43873  55.6315  95.3771 0037867 198.7638 175.8510  2.00557717 53455","category":"GPS"}]}